start=new Date('2021-09-10T00:00:00.000Z').valueOf();
sats=[{"INCLINATION":"53.0560","COUNTRY_CODE":"US","EPOCH":"2021-09-09T21:08:52.090080","RCS_SIZE":"LARGE","CLASSIFICATION_TYPE":"U","REV_AT_EPOCH":"4967","DECAY_DATE":null,"EPHEMERIS_TYPE":"0","SITE":"AFETR","NORAD_CAT_ID":"46684","ECCENTRICITY":"0.00018640","APOAPSIS":"548.520","MEAN_ANOMALY":"265.9463","GP_ID":"184409105","FILE":"3111873","TIME_SYSTEM":"UTC","OBJECT_ID":"2020-073Q","RA_OF_ASC_NODE":"51.9970","MEAN_MOTION":"15.06394784","TLE_LINE2":"2 46684  53.0560  51.9970 0001864  94.1739 265.9463 15.06394784 49670","SEMIMAJOR_AXIS":"6925.365","PERIOD":"95.592","PERIAPSIS":"545.939","ELEMENT_SET_NO":"999","ARG_OF_PERICENTER":"94.1739","OBJECT_TYPE":"PAYLOAD","MEAN_MOTION_DOT":"-0.00000207","MEAN_ELEMENT_THEORY":"SGP4","TLE_LINE1":"1 46684U 20073Q   21252.88115845 -.00000207  00000-0  50001-5 0  9993","CENTER_NAME":"EARTH","OBJECT_NAME":"STARLINK-1780","BSTAR":"0.00000500010000","REF_FRAME":"TEME","LAUNCH_DATE":"2020-10-18","MEAN_MOTION_DDOT":"0.0000000000000"},{"PERIAPSIS":"546.210","SEMIMAJOR_AXIS":"6925.442","PERIOD":"95.594","TLE_LINE2":"2 46685  53.0550  67.9091 0001584  81.2799 278.8369 15.06369444 49429","MEAN_ELEMENT_THEORY":"SGP4","MEAN_MOTION_DOT":"0.00000020","OBJECT_TYPE":"PAYLOAD","ARG_OF_PERICENTER":"81.2799","ELEMENT_SET_NO":"999","REF_FRAME":"TEME","BSTAR":"0.00002022200000","CENTER_NAME":"EARTH","OBJECT_NAME":"STARLINK-1781","TLE_LINE1":"1 46685U 20073R   21252.67151514  .00000020  00000-0  20222-4 0  9997","MEAN_MOTION_DDOT":"0.0000000000000","LAUNCH_DATE":"2020-10-18","RCS_SIZE":"LARGE","EPOCH":"2021-09-09T16:06:58.908096","COUNTRY_CODE":"US","INCLINATION":"53.0550","NORAD_CAT_ID":"46685","SITE":"AFETR","EPHEMERIS_TYPE":"0","DECAY_DATE":null,"CLASSIFICATION_TYPE":"U","REV_AT_EPOCH":"4942","FILE":"3111873","GP_ID":"184408363","MEAN_ANOMALY":"278.8369","APOAPSIS":"548.404","ECCENTRICITY":"0.00015840","MEAN_MOTION":"15.06369444","RA_OF_ASC_NODE":"67.9091","OBJECT_ID":"2020-073R","TIME_SYSTEM":"UTC"},{"MEAN_ANOMALY":"252.8567","APOAPSIS":"548.414","ECCENTRICITY":"0.00017130","FILE":"3111873","GP_ID":"184408613","OBJECT_ID":"2020-073S","TIME_SYSTEM":"UTC","RA_OF_ASC_NODE":"67.1106","MEAN_MOTION":"15.06395321","INCLINATION":"53.0548","RCS_SIZE":"LARGE","COUNTRY_CODE":"US","EPOCH":"2021-09-09T20:27:04.427712","DECAY_DATE":null,"EPHEMERIS_TYPE":"0","REV_AT_EPOCH":"4945","CLASSIFICATION_TYPE":"U","NORAD_CAT_ID":"46686","SITE":"AFETR","OBJECT_NAME":"STARLINK-1783","CENTER_NAME":"EARTH","TLE_LINE1":"1 46686U 20073S   21252.85213458 -.00000572  00000-0 -19516-4 0  9992","REF_FRAME":"TEME","BSTAR":"-0.00001951600000","LAUNCH_DATE":"2020-10-18","MEAN_MOTION_DDOT":"0.0000000000000","PERIOD":"95.592","SEMIMAJOR_AXIS":"6925.363","TLE_LINE2":"2 46686  53.0548  67.1106 0001713 107.2610 252.8567 15.06395321 49459","PERIAPSIS":"546.042","ELEMENT_SET_NO":"999","OBJECT_TYPE":"PAYLOAD","MEAN_MOTION_DOT":"-0.00000572","MEAN_ELEMENT_THEORY":"SGP4","ARG_OF_PERICENTER":"107.2610"},{"PERIAPSIS":"546.163","PERIOD":"95.591","SEMIMAJOR_AXIS":"6925.316","TLE_LINE2":"2 46687  53.0560  32.4590 0001470 106.4889 253.6261 15.06410617 49934","MEAN_ELEMENT_THEORY":"SGP4","MEAN_MOTION_DOT":"-0.00000087","OBJECT_TYPE":"PAYLOAD","ARG_OF_PERICENTER":"106.4889","ELEMENT_SET_NO":"999","REF_FRAME":"TEME","BSTAR":"0.00001307000000","CENTER_NAME":"EARTH","OBJECT_NAME":"STARLINK-1784","TLE_LINE1":"1 46687U 20073T   21252.77241893 -.00000087  00000-0  13070-4 0  9997","MEAN_MOTION_DDOT":"0.0000000000000","LAUNCH_DATE":"2020-10-18","RCS_SIZE":"LARGE","EPOCH":"2021-09-09T18:32:16.995552","COUNTRY_CODE":"US","INCLINATION":"53.0560","NORAD_CAT_ID":"46687","SITE":"AFETR","EPHEMERIS_TYPE":"0","DECAY_DATE":null,"CLASSIFICATION_TYPE":"U","REV_AT_EPOCH":"4993","FILE":"3111873","GP_ID":"184409365","MEAN_ANOMALY":"253.6261","APOAPSIS":"548.199","ECCENTRICITY":"0.00014700","RA_OF_ASC_NODE":"32.4590","MEAN_MOTION":"15.06410617","TIME_SYSTEM":"UTC","OBJECT_ID":"2020-073T"},{"RCS_SIZE":"LARGE","EPOCH":"2021-09-09T16:11:24.680544","COUNTRY_CODE":"US","INCLINATION":"53.0575","NORAD_CAT_ID":"46688","SITE":"AFETR","EPHEMERIS_TYPE":"0","DECAY_DATE":null,"REV_AT_EPOCH":"4945","CLASSIFICATION_TYPE":"U","FILE":"3111873","GP_ID":"184409605","MEAN_ANOMALY":"15.1872","APOAPSIS":"477.858","ECCENTRICITY":"0.00004630","MEAN_MOTION":"15.29421989","RA_OF_ASC_NODE":"66.4297","TIME_SYSTEM":"UTC","OBJECT_ID":"2020-073U","PERIAPSIS":"477.224","SEMIMAJOR_AXIS":"6855.676","PERIOD":"94.153","TLE_LINE2":"2 46688  53.0575  66.4297 0000463 344.9113  15.1872 15.29421989 49457","MEAN_ELEMENT_THEORY":"SGP4","MEAN_MOTION_DOT":"0.00333898","OBJECT_TYPE":"PAYLOAD","ARG_OF_PERICENTER":"344.9113","ELEMENT_SET_NO":"999","REF_FRAME":"TEME","BSTAR":"0.01104800000000","OBJECT_NAME":"STARLINK-1786","CENTER_NAME":"EARTH","TLE_LINE1":"1 46688U 20073U   21252.67459121  .00333898  00000-0  11048-1 0  9990","MEAN_MOTION_DDOT":"0.0000000000000","LAUNCH_DATE":"2020-10-18"},{"NORAD_CAT_ID":"46689","SITE":"AFETR","EPHEMERIS_TYPE":"0","DECAY_DATE":null,"REV_AT_EPOCH":"5066","CLASSIFICATION_TYPE":"U","RCS_SIZE":"LARGE","EPOCH":"2021-09-09T14:20:50.264736","COUNTRY_CODE":"US","INCLINATION":"53.0556","RA_OF_ASC_NODE":"68.2578","MEAN_MOTION":"15.06395591","OBJECT_ID":"2020-073V","TIME_SYSTEM":"UTC","FILE":"3111873","GP_ID":"184407864","MEAN_ANOMALY":"264.7405","APOAPSIS":"548.711","ECCENTRICITY":"0.00021430","MEAN_ELEMENT_THEORY":"SGP4","MEAN_MOTION_DOT":"-0.00000543","OBJECT_TYPE":"PAYLOAD","ARG_OF_PERICENTER":"95.3829","ELEMENT_SET_NO":"999","PERIAPSIS":"545.743","PERIOD":"95.592","SEMIMAJOR_AXIS":"6925.362","TLE_LINE2":"2 46689  53.0556  68.2578 0002143  95.3829 264.7405 15.06395591 50660","MEAN_MOTION_DDOT":"0.0000000000000","LAUNCH_DATE":"2020-10-18","REF_FRAME":"TEME","BSTAR":"-0.00001754300000","CENTER_NAME":"EARTH","OBJECT_NAME":"STARLINK-1788","TLE_LINE1":"1 46689U 20073V   21252.59780399 -.00000543  00000-0 -17543-4 0  9995"},{"INCLINATION":"53.0560","RCS_SIZE":"LARGE","COUNTRY_CODE":"US","EPOCH":"2021-09-09T19:08:06.862560","DECAY_DATE":null,"EPHEMERIS_TYPE":"0","REV_AT_EPOCH":"4979","CLASSIFICATION_TYPE":"U","NORAD_CAT_ID":"46690","SITE":"AFETR","MEAN_ANOMALY":"256.5613","APOAPSIS":"548.472","ECCENTRICITY":"0.00018240","FILE":"3111873","GP_ID":"184408114","OBJECT_ID":"2020-073W","TIME_SYSTEM":"UTC","MEAN_MOTION":"15.06401670","RA_OF_ASC_NODE":"42.3473","PERIOD":"95.592","SEMIMAJOR_AXIS":"6925.343","TLE_LINE2":"2 46690  53.0560  42.3473 0001824 103.5579 256.5613 15.06401670 49791","PERIAPSIS":"545.945","ELEMENT_SET_NO":"999","OBJECT_TYPE":"PAYLOAD","MEAN_MOTION_DOT":"-0.00000431","MEAN_ELEMENT_THEORY":"SGP4","ARG_OF_PERICENTER":"103.5579","OBJECT_NAME":"STARLINK-1789","CENTER_NAME":"EARTH","TLE_LINE1":"1 46690U 20073W   21252.79730165 -.00000431  00000-0 -10013-4 0  9996","REF_FRAME":"TEME","BSTAR":"-0.00001001300000","LAUNCH_DATE":"2020-10-18","MEAN_MOTION_DDOT":"0.0000000000000"},{"ECCENTRICITY":"0.00016190","MEAN_ANOMALY":"270.2144","APOAPSIS":"548.346","GP_ID":"184408866","FILE":"3111873","OBJECT_ID":"2020-073X","TIME_SYSTEM":"UTC","RA_OF_ASC_NODE":"52.0651","MEAN_MOTION":"15.06396483","INCLINATION":"53.0562","COUNTRY_CODE":"US","EPOCH":"2021-09-09T20:42:19.670688","RCS_SIZE":"LARGE","CLASSIFICATION_TYPE":"U","REV_AT_EPOCH":"4966","DECAY_DATE":null,"EPHEMERIS_TYPE":"0","SITE":"AFETR","NORAD_CAT_ID":"46691","TLE_LINE1":"1 46691U 20073X   21252.86272767  .00001198  00000-0  99332-4 0  9994","CENTER_NAME":"EARTH","OBJECT_NAME":"STARLINK-1790","BSTAR":"0.00009933200000","REF_FRAME":"TEME","LAUNCH_DATE":"2020-10-18","MEAN_MOTION_DDOT":"0.0000000000000","TLE_LINE2":"2 46691  53.0562  52.0651 0001619  89.9030 270.2144 15.06396483 49664","PERIOD":"95.592","SEMIMAJOR_AXIS":"6925.359","PERIAPSIS":"546.103","ELEMENT_SET_NO":"999","ARG_OF_PERICENTER":"89.9030","OBJECT_TYPE":"PAYLOAD","MEAN_MOTION_DOT":"0.00001198","MEAN_ELEMENT_THEORY":"SGP4"},{"DECAY_DATE":null,"EPHEMERIS_TYPE":"0","CLASSIFICATION_TYPE":"U","REV_AT_EPOCH":"4945","NORAD_CAT_ID":"46692","SITE":"AFETR","INCLINATION":"53.0542","RCS_SIZE":"LARGE","COUNTRY_CODE":"US","EPOCH":"2021-09-09T20:21:45.485568","TIME_SYSTEM":"UTC","OBJECT_ID":"2020-073Y","RA_OF_ASC_NODE":"67.1355","MEAN_MOTION":"15.06396701","APOAPSIS":"548.341","MEAN_ANOMALY":"257.9211","ECCENTRICITY":"0.00016140","FILE":"3111873","GP_ID":"184409106","ELEMENT_SET_NO":"999","OBJECT_TYPE":"PAYLOAD","MEAN_ELEMENT_THEORY":"SGP4","MEAN_MOTION_DOT":"0.00001718","ARG_OF_PERICENTER":"102.1959","SEMIMAJOR_AXIS":"6925.359","PERIOD":"95.592","TLE_LINE2":"2 46692  53.0542  67.1355 0001614 102.1959 257.9211 15.06396701 49451","PERIAPSIS":"546.106","LAUNCH_DATE":"2020-10-18","MEAN_MOTION_DDOT":"0.0000000000000","OBJECT_NAME":"STARLINK-1791","CENTER_NAME":"EARTH","TLE_LINE1":"1 46692U 20073Y   21252.84844312  .00001718  00000-0  13425-3 0  9990","REF_FRAME":"TEME","BSTAR":"0.00013425000000"},{"MEAN_MOTION_DDOT":"0.0000000000000","LAUNCH_DATE":"2020-10-18","BSTAR":"0.00009795200000","REF_FRAME":"TEME","TLE_LINE1":"1 46693U 20073Z   21252.86640695  .00001178  00000-0  97952-4 0  9999","OBJECT_NAME":"STARLINK-1792","CENTER_NAME":"EARTH","ARG_OF_PERICENTER":"99.9916","OBJECT_TYPE":"PAYLOAD","MEAN_MOTION_DOT":"0.00001178","MEAN_ELEMENT_THEORY":"SGP4","ELEMENT_SET_NO":"999","PERIAPSIS":"546.172","TLE_LINE2":"2 46693  53.0555  52.0443 0001521  99.9916 260.1244 15.06396144 49666","PERIOD":"95.592","SEMIMAJOR_AXIS":"6925.360","RA_OF_ASC_NODE":"52.0443","MEAN_MOTION":"15.06396144","TIME_SYSTEM":"UTC","OBJECT_ID":"2020-073Z","GP_ID":"184408364","FILE":"3111873","ECCENTRICITY":"0.00015210","APOAPSIS":"548.279","MEAN_ANOMALY":"260.1244","SITE":"AFETR","NORAD_CAT_ID":"46693","REV_AT_EPOCH":"4966","CLASSIFICATION_TYPE":"U","DECAY_DATE":null,"EPHEMERIS_TYPE":"0","COUNTRY_CODE":"US","EPOCH":"2021-09-09T20:47:37.560480","RCS_SIZE":"LARGE","INCLINATION":"53.0555"}];
